[{"OBJECT_NAME":"PICO-01A003","OBJECT_ID":"2023-174BY","EPOCH":"2026-03-09T22:00:02.486016","MEAN_MOTION":15.41977893,"ECCENTRICITY":0.00070833,"INCLINATION":97.383,"RA_OF_ASC_NODE":152.7854,"ARG_OF_PERICENTER":152.9291,"MEAN_ANOMALY":207.2327,"EPHEMERIS_TYPE":0,"CLASSIFICATION_TYPE":"U","NORAD_CAT_ID":58326,"ELEMENT_SET_NO":999,"REV_AT_EPOCH":13009,"BSTAR":0.00057902157,"MEAN_MOTION_DOT":0.00024643,"MEAN_MOTION_DDOT":0},{"OBJECT_NAME":"JACKAL X-1L-001","OBJECT_ID":"2024-043AF","EPOCH":"2026-03-09T21:53:51.909504","MEAN_MOTION":15.41200084,"ECCENTRICITY":0.00073606,"INCLINATION":97.5425,"RA_OF_ASC_NODE":210.2937,"ARG_OF_PERICENTER":209.2709,"MEAN_ANOMALY":150.8126,"EPHEMERIS_TYPE":0,"CLASSIFICATION_TYPE":"U","NORAD_CAT_ID":59127,"ELEMENT_SET_NO":999,"REV_AT_EPOCH":11224,"BSTAR":0.00050692817,"MEAN_MOTION_DOT":0.00021003,"MEAN_MOTION_DDOT":0}]
